[
    {
        "Altitude(m)": 555234.6537730211,
        "Argument of Periapsis(deg)": 0.013245982221427002,
        "Eccentricity": 0.0,
        "Inclination(deg)": 53.0,
        "Latitude(deg)": -6.073557624139112,
        "Longitude(deg)": -77.00305961225996,
        "Mean Anomaly(deg)": -172.54401426484483,
        "RAAN(deg)": 199.98028673705602,
        "Satellite Name": "Starlink Shell 1 890",
        "Satellite Number": 890,
        "Semi-Major Axis(m)": 6931778.249405717,
        "Time(s)": 380
    },
    {
        "Altitude(m)": 555334.0921546334,
        "Argument of Periapsis(deg)": 0.013594560700938237,
        "Eccentricity": 0.0,
        "Inclination(deg)": 53.0,
        "Latitude(deg)": -6.575557791309578,
        "Longitude(deg)": -76.66319990368656,
        "Mean Anomaly(deg)": -171.91718306128809,
        "RAAN(deg)": 199.97976796697856,
        "Satellite Name": "Starlink Shell 1 890",
        "Satellite Number": 890,
        "Semi-Major Axis(m)": 6931778.249405717,
        "Time(s)": 390
    },
    {
        "Altitude(m)": 555436.1078708329,
        "Argument of Periapsis(deg)": 0.013943139180449475,
        "Eccentricity": 0.0,
        "Inclination(deg)": 53.0,
        "Latitude(deg)": -7.077245218301467,
        "Longitude(deg)": -76.32258474482579,
        "Mean Anomaly(deg)": -171.29035185773137,
        "RAAN(deg)": 199.97924919690107,
        "Satellite Name": "Starlink Shell 1 890",
        "Satellite Number": 890,
        "Semi-Major Axis(m)": 6931778.249405717,
        "Time(s)": 400
    },
    {
        "Altitude(m)": 555540.6749396216,
        "Argument of Periapsis(deg)": 0.014291717659960712,
        "Eccentricity": 0.0,
        "Inclination(deg)": 53.0,
        "Latitude(deg)": -7.5785959746627976,
        "Longitude(deg)": -75.98115385558516,
        "Mean Anomaly(deg)": -170.66352065417465,
        "RAAN(deg)": 199.9787304268236,
        "Satellite Name": "Starlink Shell 1 890",
        "Satellite Number": 890,
        "Semi-Major Axis(m)": 6931778.249405717,
        "Time(s)": 410
    },
    {
        "Altitude(m)": 555647.7661075862,
        "Argument of Periapsis(deg)": 0.014640296139471948,
        "Eccentricity": 0.0,
        "Inclination(deg)": 53.0,
        "Latitude(deg)": -8.079585964475763,
        "Longitude(deg)": -75.6388471082046,
        "Mean Anomaly(deg)": -170.03668945061796,
        "RAAN(deg)": 199.97821165674617,
        "Satellite Name": "Starlink Shell 1 890",
        "Satellite Number": 890,
        "Semi-Major Axis(m)": 6931778.249405717,
        "Time(s)": 420
    },
    {
        "Altitude(m)": 555757.3528607336,
        "Argument of Periapsis(deg)": 0.014988874618983185,
        "Eccentricity": 0.0,
        "Inclination(deg)": 53.0,
        "Latitude(deg)": -8.5801909135127,
        "Longitude(deg)": -75.29560399709408,
        "Mean Anomaly(deg)": -169.40985824706124,
        "RAAN(deg)": 199.97769288666865,
        "Satellite Name": "Starlink Shell 1 890",
        "Satellite Number": 890,
        "Semi-Major Axis(m)": 6931778.249405717,
        "Time(s)": 430
    },
    {
        "Altitude(m)": 555869.4054360084,
        "Argument of Periapsis(deg)": 0.015337453098494424,
        "Eccentricity": 0.0,
        "Inclination(deg)": 53.0,
        "Latitude(deg)": -9.080386356221322,
        "Longitude(deg)": -74.95136310858925,
        "Mean Anomaly(deg)": -168.7830270435045,
        "RAAN(deg)": 199.97717411659121,
        "Satellite Name": "Starlink Shell 1 890",
        "Satellite Number": 890,
        "Semi-Major Axis(m)": 6931778.249405717,
        "Time(s)": 440
    },
    {
        "Altitude(m)": 555983.8928333817,
        "Argument of Periapsis(deg)": 0.01568603157800566,
        "Eccentricity": 0.0,
        "Inclination(deg)": 53.0,
        "Latitude(deg)": -9.580147622529138,
        "Longitude(deg)": -74.60606310349708,
        "Mean Anomaly(deg)": -168.15619583994786,
        "RAAN(deg)": 199.97665534651375,
        "Satellite Name": "Starlink Shell 1 890",
        "Satellite Number": 890,
        "Semi-Major Axis(m)": 6931778.249405717,
        "Time(s)": 450
    },
    {
        "Altitude(m)": 556100.7828285976,
        "Argument of Periapsis(deg)": 0.0160346100575169,
        "Eccentricity": 0.0,
        "Inclination(deg)": 53.0,
        "Latitude(deg)": -10.079449824453826,
        "Longitude(deg)": -74.25964218668355,
        "Mean Anomaly(deg)": -167.52936463639108,
        "RAAN(deg)": 199.97613657643626,
        "Satellite Name": "Starlink Shell 1 890",
        "Satellite Number": 890,
        "Semi-Major Axis(m)": 6931778.249405717,
        "Time(s)": 460
    },
    {
        "Altitude(m)": 556220.0419865053,
        "Argument of Periapsis(deg)": 0.016383188537028134,
        "Eccentricity": 0.0,
        "Inclination(deg)": 53.0,
        "Latitude(deg)": -10.578267842507552,
        "Longitude(deg)": -73.91203757657834,
        "Mean Anomaly(deg)": -166.90253343283442,
        "RAAN(deg)": 199.9756178063588,
        "Satellite Name": "Starlink Shell 1 890",
        "Satellite Number": 890,
        "Semi-Major Axis(m)": 6931778.249405717,
        "Time(s)": 470
    },
    {
        "Altitude(m)": 556341.6356749889,
        "Argument of Periapsis(deg)": 0.01673176701653937,
        "Eccentricity": 0.0,
        "Inclination(deg)": 53.0,
        "Latitude(deg)": -11.076576311884926,
        "Longitude(deg)": -73.56318648747096,
        "Mean Anomaly(deg)": -166.27570222927767,
        "RAAN(deg)": 199.9750990362813,
        "Satellite Name": "Starlink Shell 1 890",
        "Satellite Number": 890,
        "Semi-Major Axis(m)": 6931778.249405717,
        "Time(s)": 480
    },
    {
        "Altitude(m)": 556465.528079514,
        "Argument of Periapsis(deg)": 0.017080345496050607,
        "Eccentricity": 0.0,
        "Inclination(deg)": 53.0,
        "Latitude(deg)": -11.574349608419572,
        "Longitude(deg)": -73.21302559885505,
        "Mean Anomaly(deg)": -165.64887102572092,
        "RAAN(deg)": 199.97458026620382,
        "Satellite Name": "Starlink Shell 1 890",
        "Satellite Number": 890,
        "Semi-Major Axis(m)": 6931778.249405717,
        "Time(s)": 490
    },
    {
        "Altitude(m)": 556591.6822182382,
        "Argument of Periapsis(deg)": 0.017428923975561842,
        "Eccentricity": 0.0,
        "Inclination(deg)": 53.0,
        "Latitude(deg)": -12.07156183429986,
        "Longitude(deg)": -72.86149052469786,
        "Mean Anomaly(deg)": -165.02203982216423,
        "RAAN(deg)": 199.97406149612635,
        "Satellite Name": "Starlink Shell 1 890",
        "Satellite Number": 890,
        "Semi-Major Axis(m)": 6931778.249405717,
        "Time(s)": 500
    },
    {
        "Altitude(m)": 556720.0599577128,
        "Argument of Periapsis(deg)": 0.01777750245507308,
        "Eccentricity": 0.0,
        "Inclination(deg)": 53.0,
        "Latitude(deg)": -12.56818680353064,
        "Longitude(deg)": -72.50851679551455,
        "Mean Anomaly(deg)": -164.39520861860748,
        "RAAN(deg)": 199.9735427260489,
        "Satellite Name": "Starlink Shell 1 890",
        "Satellite Number": 890,
        "Semi-Major Axis(m)": 6931778.249405717,
        "Time(s)": 510
    },
    {
        "Altitude(m)": 556850.6220291484,
        "Argument of Periapsis(deg)": 0.018126080934584315,
        "Eccentricity": 0.0,
        "Inclination(deg)": 53.0,
        "Latitude(deg)": -13.064198027127397,
        "Longitude(deg)": -72.15403932750849,
        "Mean Anomaly(deg)": -163.7683774150508,
        "RAAN(deg)": 199.9730239559714,
        "Satellite Name": "Starlink Shell 1 890",
        "Satellite Number": 890,
        "Semi-Major Axis(m)": 6931778.249405717,
        "Time(s)": 520
    },
    {
        "Altitude(m)": 556983.3280452426,
        "Argument of Periapsis(deg)": 0.018474659414095554,
        "Eccentricity": 0.0,
        "Inclination(deg)": 53.0,
        "Latitude(deg)": -13.559568698032976,
        "Longitude(deg)": -71.79799189165762,
        "Mean Anomaly(deg)": -163.14154621149405,
        "RAAN(deg)": 199.97250518589394,
        "Satellite Name": "Starlink Shell 1 890",
        "Satellite Number": 890,
        "Semi-Major Axis(m)": 6931778.249405717,
        "Time(s)": 530
    },
    {
        "Altitude(m)": 557118.1365175705,
        "Argument of Periapsis(deg)": 0.018823237893606792,
        "Eccentricity": 0.0,
        "Inclination(deg)": 53.0,
        "Latitude(deg)": -14.05427167574227,
        "Longitude(deg)": -71.4403080956349,
        "Mean Anomaly(deg)": -162.5147150079374,
        "RAAN(deg)": 199.97198641581647,
        "Satellite Name": "Starlink Shell 1 890",
        "Satellite Number": 890,
        "Semi-Major Axis(m)": 6931778.249405717,
        "Time(s)": 540
    },
    {
        "Altitude(m)": 557255.0048744793,
        "Argument of Periapsis(deg)": 0.019171816373118027,
        "Eccentricity": 0.0,
        "Inclination(deg)": 53.0,
        "Latitude(deg)": -14.548279470624502,
        "Longitude(deg)": -71.0809208528249,
        "Mean Anomaly(deg)": -161.88788380438064,
        "RAAN(deg)": 199.97146764573898,
        "Satellite Name": "Starlink Shell 1 890",
        "Satellite Number": 890,
        "Semi-Major Axis(m)": 6931778.249405717,
        "Time(s)": 550
    },
    {
        "Altitude(m)": 557393.8894795874,
        "Argument of Periapsis(deg)": 0.019520394852629266,
        "Eccentricity": 0.0,
        "Inclination(deg)": 53.0,
        "Latitude(deg)": -15.041564227927969,
        "Longitude(deg)": -70.71976185132816,
        "Mean Anomaly(deg)": -161.26105260082392,
        "RAAN(deg)": 199.97094887566155,
        "Satellite Name": "Starlink Shell 1 890",
        "Satellite Number": 890,
        "Semi-Major Axis(m)": 6931778.249405717,
        "Time(s)": 560
    }
]